[{"OBJECT_NAME":"STARLINK-35055","OBJECT_ID":"2025-200E","EPOCH":"2026-03-09T16:58:41.927808","MEAN_MOTION":15.05650325,"ECCENTRICITY":5.95e-5,"INCLINATION":97.6021,"RA_OF_ASC_NODE":139.8176,"ARG_OF_PERICENTER":117.7964,"MEAN_ANOMALY":242.3323,"EPHEMERIS_TYPE":0,"CLASSIFICATION_TYPE":"U","NORAD_CAT_ID":65524,"ELEMENT_SET_NO":999,"REV_AT_EPOCH":2913,"BSTAR":0.0002462695,"MEAN_MOTION_DOT":3.494e-5,"MEAN_MOTION_DDOT":0},{"OBJECT_NAME":"CZ-6A DEB","OBJECT_ID":"2024-140NJ","EPOCH":"2026-03-09T15:30:01.982592","MEAN_MOTION":15.1004937,"ECCENTRICITY":0.00567225,"INCLINATION":88.9288,"RA_OF_ASC_NODE":275.3548,"ARG_OF_PERICENTER":176.1403,"MEAN_ANOMALY":184.0287,"EPHEMERIS_TYPE":0,"CLASSIFICATION_TYPE":"U","NORAD_CAT_ID":61092,"ELEMENT_SET_NO":999,"REV_AT_EPOCH":8278,"BSTAR":0.0051635532,"MEAN_MOTION_DOT":0.00088127,"MEAN_MOTION_DDOT":0}]
